#aV2006  1  2  0  0   .00000000      96 DD+AD WGS84 FIT  NGA
## 1356  86400.00000000   900.00000000 53737  .0000000000000
+   29     1  2  3  4  5  6  7  8  9 10 11 13 14 15 16 17 18
+         19 20 21 22 23 24 25 26 27 28 29 30  0  0  0  0  0
+          0  0  0  0  0  0  0  0  0  0  0  0  0  0  0  0  0
+          0  0  0  0  0  0  0  0  0  0  0  0  0  0  0  0  0
+          0  0  0  0  0  0  0  0  0  0  0  0  0  0  0  0  0
++         0  0  0  0  0  0  0  0  0  0  0  0  0  0  0  0  0
++         0  0  0  0  0  0  0  0  0  0  0  0  0  0  0  0  0
++         0  0  0  0  0  0  0  0  0  0  0  0  0  0  0  0  0
++         0  0  0  0  0  0  0  0  0  0  0  0  0  0  0  0  0
++         0  0  0  0  0  0  0  0  0  0  0  0  0  0  0  0  0
%c cc cc ccc ccc cccc cccc cccc cccc ccccc ccccc ccccc ccccc
%c cc cc ccc ccc cccc cccc cccc cccc ccccc ccccc ccccc ccccc
%f  0.0000000  0.000000000  0.00000000000  0.000000000000000
%f  0.0000000  0.000000000  0.00000000000  0.000000000000000
%i    0    0    0    0      0      0      0      0         0
%i    0    0    0    0      0      0      0      0         0
/*      NGA, ST. LOUIS,MO.                                  
/*   EPHEMERIS COMPUTED FROM  3 DAYS OF DATA                
/* CCCCCCCCCCCCCCCCCCCCCCCCCCCCCCCCCCCCCCCCCCCCCCCCCCCCCCCCC
/* CCCCCCCCCCCCCCCCCCCCCCCCCCCCCCCCCCCCCCCCCCCCCCCCCCCCCCCCC
*  2006  1  2 20 30   .00000000                                                 
P  1  -4783.174713  16138.744913  20732.218895     28.487497                    
V  1 -24659.077578   7681.329274 -11825.280130       .024242                    
P  2  -7790.826827 -20217.572064  15196.975857    -23.107021                    
V  2  16712.470060  10734.632555  22283.489638       .009641                    
P  3   2771.740454  16205.695817 -20979.794458     63.491264                    
V  3 -24135.521447  10884.461519   5557.897455       .029411                    
P  4   4780.935682 -15488.394527  20953.150121    105.671661                    
V  4  21064.055384  16543.808904   7763.178234       .123096                    
P  5 -14012.542230  -9992.959404  20076.699847    451.673496                    
V  5   3141.567321 -25800.047812 -10382.982449       .236222                    
P  6 -25299.462372   5644.013625   6175.081329    177.978354                    
V  6   5699.557291  -6103.230216  29761.682240       .441800                    
P  7  14540.380172 -17700.206175  13768.182454    461.246674                    
V  7  16534.530872  -4427.160069 -24026.561150       .101944                    
P  8  12261.469346  -9135.770475 -21900.750841    -52.157319                    
V  8  20496.388210  18144.767321   3541.805701      -.012872                    
P  9 -21706.533656 -15520.402361    871.281330      1.999373                    
V  9    201.194605  -3153.088274 -31500.445445       .014291                    
P 10  -3119.884923 -23944.459330 -10782.060222     76.448081                    
V 10   4633.295523 -13046.413077  28126.432125       .006115                    
P 11  23364.239019  12823.380631   1385.431498    296.056050                    
V 11   -769.936470   4811.450861 -30111.340624       .029869                    
P 13  25436.375082  -6308.927891   4048.872832     32.688737                    
V 13  -4277.019278   3553.689319  31889.673692       .022322                    
P 14 -17801.008698  15387.004030  12341.576056    -21.573278                    
V 14 -15165.596706   3812.528225 -26821.400258       .005438                    
P 15 -13475.878653   8127.606222 -21605.527252    543.846079                    
V 15 -19450.098601 -18721.204169   4767.298314       .058697                    
P 16  -1775.913815  26192.639096  -3637.608372     20.213189                    
V 16  -3564.500413   4200.057989  31386.591266       .015403                    
P 17  19035.859265 -15188.365662  10483.570466     17.028362                    
V 17  13405.394686  -2413.441489 -27843.688254       .102561                    
P 18 -15679.201570   8463.383077 -19508.602264   -212.437280                    
V 18   3630.402218 -24848.795881 -13916.058357      -.023536                    
P 19  15316.699435   9474.125439 -19433.957134    -24.378504                    
V 19 -23330.123817   8762.783719 -14012.938720       .006238                    
P 20  13527.010817   8927.186165  20965.553968    -36.348155                    
V 20  -4701.525142  26403.268835  -8152.220089       .010526                    
P 21 -19823.959392   -251.201448 -17867.966443    164.273498                    
V 21 -15953.586169 -16125.251370  17387.796458       .038087                    
P 22 -12162.474398  20975.371574 -10683.132404     59.568723                    
V 22    337.683204 -14050.497517 -27551.230757       .021537                    
P 23  22157.635612   2183.866659  14505.861354    156.276209                    
V 23 -16581.272967   8423.146397  23763.718761      -.017001                    
P 24  16900.399061  -3939.374409  20417.942890     74.277439                    
V 24  18245.804991  17562.172947 -11624.622531       .030405                    
P 25    343.926890  17589.564989  20269.943756    -98.153493                    
V 25 -21333.453047 -12926.532085  11909.347641     -1.187836                    
P 26 -11277.752052 -11178.798980 -21754.399713     -8.082472                    
V 26  24975.596288  -9102.825948  -7837.662073      -.073079                    
P 27  19876.967489   -681.096597 -17200.021140     29.858936                    
V 27  17598.469466  14699.563115  18744.130751       .016008                    
P 28  12804.847783 -18629.789444 -13397.552352     35.857155                    
V 28   -533.783417  17759.164581 -25069.009596      -.007281                    
P 29  -6426.902094 -13105.635984 -21945.178869    483.729715                    
V 29  26400.008453 -10461.079610  -1239.195266       .147233                    
P 30 -15617.631069   1587.377624  21139.028120      9.995319                    
V 30   2855.050459 -27419.420188   4227.799725       .057244                    
EOF
